MTG-S1                  
1 64723U 25143A   26095.10251894 -.00000031  00000+0  00000+0 0  9992
2 64723   0.6196 332.4344 0002059 359.3781 254.9879  1.00273594  2682
DROR 1                  
1 64784U 25148A   26095.24499655 -.00000033  00000+0  00000+0 0  9990
2 64784   0.0509  68.6357 0003616 296.2543 272.8453  1.00271836  2569
SHIYAN-29               
1 65486U 25196A   26095.00538276 -.00000276  00000+0  00000+0 0  9999
2 65486  28.7451  19.4581 0009615 177.4148  93.8716  1.00279347  2143
TJS-20                  
1 66142U 25238A   26095.18239307  .00000021  00000+0  00000+0 0  9995
2 66142   5.6327 299.8224 0008472 103.8939 277.7940  1.00271366  1603
CMS-03 (GSAT-7R)        
1 66311U 25249B   26095.18901264 -.00000076  00000+0  00000+0 0  9994
2 66311   0.0477 264.7517 0003883 101.8949 328.8996  1.00272319  1611
VIASAT-3 F2             
1 66454U 25261A   26095.16919711 -.00000233  00000+0  00000+0 0  9995
2 66454   0.0392 270.4026 0002741 172.6931  92.3082  1.00272389  2058
SHIJIAN-28 (SJ-28)      
1 66549U 25277A   26095.26900332 -.00000364  00000+0  00000+0 0  9992
2 66549   4.7268 273.2491 0000071 175.4790 318.5316  1.00273383  1429
TJS-22                  
1 66990U 25290A   26095.06973955 -.00000008  00000+0  00000+0 0  9991
2 66990   1.7087 285.7191 0002527   1.4769 357.7496  1.00273118  1297
TJS-23                  
1 67226U 25306A   26094.80291575  .00000012  00000+0  00000+0 0  9998
2 67226   5.7558 297.8505 0006601 118.6284 241.1987  1.00274690  1152
FENGYUN 4C              
1 67246U 25312A   26094.98699822 -.00000322  00000+0  00000+0 0  9998
2 67246   0.0173  86.0552 0000749   4.1684 231.3872  1.00271495  1047
SHIJIAN-29A (SJ-29A)    
1 67302U 25315A   26095.08462671 -.00000066  00000+0  00000+0 0  9991
2 67302   3.2118  96.9420 0002829 317.9881 242.1953  1.00274602   887
SHIJIAN-29B (SJ-29B)    
1 67403U 25315C   26095.08462671 -.00000067  00000+0  00000+0 0  9994
2 67403   3.2110  96.9357 0005712 329.3939 230.8643  1.00275041   951
ELEKTRO-L 5             
1 67756U 26028A   26094.25374444 -.00000099  00000+0  00000+0 0  9990
2 67756   0.4108 293.6469 0000635 210.3339 216.0149  1.00271792   529
JAM-E JAM 1             
1 67757U 26028B   26095.21155890  .00000156  00000+0  00000+0 0  9993
2 67757   0.4289 288.5291 0001923 128.7806 246.2408  1.00270014   392
ECHOSTAR 25             
1 68126U 26045A   26095.24280675  .00000059  00000+0  00000+0 0  9998
2 68126   0.0337 281.7974 0001785 154.0499  76.2518  1.00271198   265
